NORAD_CAT_ID,OBJECT_NAME,OBJECT_TYPE,EPOCH,MEAN_MOTION,ECCENTRICITY,INCLINATION,RA_OF_ASC_NODE,ARG_OF_PERICENTER,MEAN_ANOMALY,BSTAR,MEAN_MOTION_DOT,MEAN_MOTION_DDOT,TLE_LINE0,TLE_LINE1,TLE_LINE2,SEMIMAJOR_AXIS,PERIOD,APOGEE,PERIGEE,DECAYED
53780.0,STARLINK-4678,PAYLOAD,2023-02-21 12:29:27,15.08830741,0.000123,53.2194,227.0317,103.5426,256.5703,-1.7557e-05,-5.67e-06,0.0,0 STARLINK-4678,1 53780U 22111H   23052.52045552 -.00000567  00000-0 -17557-4 0  9999,2 53780  53.2194 227.0317 0001230 103.5426 256.5703 15.08830741 25796,6917.909,95.438,540.625,538.923,0.0
53780.0,STARLINK-4678,PAYLOAD,2023-02-21 18:51:00,15.08827182,0.0001247,53.2183,225.842,100.1286,259.9847,4.4824e-05,4.25e-06,0.0,0 STARLINK-4678,1 53780U 22111H   23052.78541714  .00000425  00000-0  44824-4 0  9996,2 53780  53.2183 225.8420 0001247 100.1286 259.9847 15.08827182 25027,6917.92,95.438,540.647,538.922,0.0
53780.0,STARLINK-4678,PAYLOAD,2023-02-22 10:44:51,15.08835448,0.000114,53.2179,222.8678,89.7735,270.3388,7.2725e-05,8.7e-06,0.0,0 STARLINK-4678,1 53780U 22111H   23053.44781277  .00000870  00000-0  72725-4 0  9995,2 53780  53.2179 222.8678 0001140  89.7735 270.3388 15.08835448 25129,6917.894,95.438,540.548,538.971,0.0
53780.0,STARLINK-4678,PAYLOAD,2023-02-22 12:20:13,15.08838461,0.0001089,53.2176,222.5702,88.8709,271.2408,0.00010176,1.332e-05,0.0,0 STARLINK-4678,1 53780U 22111H   23053.51404943  .00001332  00000-0  10176-3 0  9990,2 53780  53.2176 222.5702 0001089  88.8709 271.2408 15.08838461 25945,6917.885,95.438,540.503,538.997,0.0
53780.0,STARLINK-4678,PAYLOAD,2023-02-23 04:14:04,15.08844039,0.0001038,53.217,219.5957,84.5705,275.5405,0.00012067,1.633e-05,0.0,0 STARLINK-4678,1 53780U 22111H   23054.17644455  .00001633  00000-0  12067-3 0  9992,2 53780  53.2170 219.5957 0001038  84.5705 275.5405 15.08844039 25234,6917.868,95.437,540.451,539.015,0.0
53780.0,STARLINK-4678,PAYLOAD,2023-02-23 10:35:37,15.08838139,0.0001225,53.2172,218.4063,86.8887,273.2245,6.5857e-05,7.6e-06,0.0,0 STARLINK-4678,1 53780U 22111H   23054.44141052  .00000760  00000-0  65857-4 0  9993,2 53780  53.2172 218.4063 0001225  86.8887 273.2245 15.08838139 25271,6917.886,95.438,540.599,538.904,0.0
53780.0,STARLINK-4678,PAYLOAD,2023-02-23 18:32:33,15.08842872,0.0001202,53.217,216.9196,81.5534,278.5594,0.00010219,1.339e-05,0.0,0 STARLINK-4678,1 53780U 22111H   23054.77260645  .00001339  00000-0  10219-3 0  9993,2 53780  53.2170 216.9196 0001202  81.5534 278.5594 15.08842872 26135,6917.872,95.437,540.568,538.905,0.0
53780.0,STARLINK-4678,PAYLOAD,2023-02-24 10:26:24,15.08842289,0.0001517,53.2175,213.9461,88.8038,271.3128,-2.2435e-05,-6.45e-06,0.0,0 STARLINK-4678,1 53780U 22111H   23055.43501018 -.00000645  00000-0 -22435-4 0  9994,2 53780  53.2175 213.9461 0001517  88.8038 271.3128 15.08842289 26237,6917.873,95.437,540.788,538.689,0.0
53780.0,STARLINK-4678,PAYLOAD,2023-02-24 16:47:57,15.08845027,0.0001514,53.217,212.7565,90.0413,270.0753,3.6973e-06,-2.29e-06,0.0,0 STARLINK-4678,1 53780U 22111H   23055.69996661 -.00000229  00000-0  36973-5 0  9994,2 53780  53.2170 212.7565 0001514  90.0413 270.0753 15.08845027 25460,6917.865,95.437,540.777,538.683,0.0
53780.0,STARLINK-4678,PAYLOAD,2023-02-25 03:55:39,15.08837587,0.0001258,53.2167,210.6758,89.8303,270.2833,8.2614e-06,-1.56e-06,0.0,0 STARLINK-4678,1 53780U 22111H   23056.16364939 -.00000156  00000-0  82614-5 0  9996,2 53780  53.2167 210.6758 0001258  89.8303 270.2833 15.08837587 25537,6917.888,95.438,540.623,538.882,0.0
53780.0,STARLINK-4678,PAYLOAD,2023-02-25 13:27:58,15.08833901,0.0001397,53.2174,208.8916,90.7254,269.3899,-3.3716e-05,-8.24e-06,0.0,0 STARLINK-4678,1 53780U 22111H   23056.56109449 -.00000824  00000-0 -33716-4 0  9994,2 53780  53.2174 208.8916 0001397  90.7254 269.3899 15.08833901 26404,6917.899,95.438,540.73,538.798,0.0
53780.0,STARLINK-4678,PAYLOAD,2023-02-25 18:14:07,15.08839154,0.0001331,53.2173,207.9983,96.3179,263.7965,-3.0289e-05,-7.7e-06,0.0,0 STARLINK-4678,1 53780U 22111H   23056.75981094 -.00000770  00000-0 -30289-4 0  9991,2 53780  53.2173 207.9983 0001331  96.3179 263.7965 15.08839154 26434,6917.883,95.438,540.669,538.827,0.0
53780.0,STARLINK-4678,PAYLOAD,2023-02-26 10:07:58,15.08839387,0.0001346,53.2178,205.0242,102.1678,257.9465,0.00010554,1.392e-05,0.0,0 STARLINK-4678,1 53780U 22111H   23057.42220587  .00001392  00000-0  10554-3 0  9990,2 53780  53.2178 205.0242 0001346 102.1678 257.9465 15.08839387 25721,6917.882,95.438,540.678,538.816,0.0
53780.0,STARLINK-4678,PAYLOAD,2023-02-26 18:04:53,15.08852443,0.0001276,53.2167,203.5385,94.5017,265.6121,0.00013737,1.9e-05,0.0,0 STARLINK-4678,1 53780U 22111H   23057.75339605  .00001900  00000-0  13737-3 0  9999,2 53780  53.2167 203.5385 0001276  94.5017 265.6121 15.08852443 25771,6917.842,95.437,540.59,538.825,0.0
53780.0,STARLINK-4678,PAYLOAD,2023-02-27 09:58:46,15.08832715,0.0001233,53.2175,200.5644,100.1303,259.9828,4.0302e-05,3.53e-06,0.0,0 STARLINK-4678,1 53780U 22111H   23058.41581215  .00000353  00000-0  40302-4 0  9999,2 53780  53.2175 200.5644 0001233 100.1303 259.9828 15.08832715 25871,6917.903,95.438,540.621,538.915,0.0
53780.0,STARLINK-4678,PAYLOAD,2023-02-27 17:55:41,15.08846783,0.000122,53.2174,199.0777,99.9603,260.1527,8.1696e-05,1.013e-05,0.0,0 STARLINK-4678,1 53780U 22111H   23058.74700432  .00001013  00000-0  81696-4 0  9994,2 53780  53.2174 199.0777 0001220  99.9603 260.1527 15.08846783 25929,6917.86,95.437,540.569,538.881,0.0
53780.0,STARLINK-4678,PAYLOAD,2023-02-28 01:52:37,15.08832667,0.0001466,53.2176,197.5901,101.077,259.0387,-4.2954e-05,-9.71e-06,0.0,0 STARLINK-4678,1 53780U 22111H   23059.07821639 -.00000971  00000-0 -42954-4 0  9992,2 53780  53.2176 197.5901 0001466 101.0770 259.0387 15.08832667 25977,6917.903,95.438,540.782,538.754,0.0
53780.0,STARLINK-4678,PAYLOAD,2023-02-28 13:00:20,15.08832603,0.0001174,53.218,195.5084,105.5988,254.5134,-0.00015682,-2.782e-05,0.0,0 STARLINK-4678,1 53780U 22111H   23059.54190137 -.00002782  00000-0 -15682-3 0  9995,2 53780  53.2180 195.5084 0001174 105.5988 254.5134 15.08832603 26856,6917.903,95.438,540.58,538.956,0.0
53780.0,STARLINK-4678,PAYLOAD,2023-02-28 17:46:28,15.08847244,0.0001148,53.2181,194.6169,105.7443,254.3676,-2.6276e-05,-7.06e-06,0.0,0 STARLINK-4678,1 53780U 22111H   23059.74060840 -.00000706  00000-0 -26276-4 0  9990,2 53780  53.2181 194.6169 0001148 105.7443 254.3676 15.08847244 26889,6917.858,95.437,540.517,538.929,0.0
53780.0,STARLINK-4678,PAYLOAD,2023-03-01 01:43:24,15.08840978,0.0001098,53.2176,193.1302,104.8302,255.2812,-0.00010484,-1.956e-05,0.0,0 STARLINK-4678,1 53780U 22111H   23060.07181425 -.00001956  00000-0 -10484-3 0  9992,2 53780  53.2176 193.1302 0001098 104.8302 255.2812 15.08840978 26120,6917.877,95.437,540.502,538.983,0.0
53780.0,STARLINK-4678,PAYLOAD,2023-03-01 08:04:58,15.08831153,0.0001665,53.2171,191.943,111.542,248.5749,-0.00010045,-1.886e-05,0.0,0 STARLINK-4678,1 53780U 22111H   23060.33678563 -.00001886  00000-0 -10045-3 0  9990,2 53780  53.2171 191.9430 0001665 111.5420 248.5749 15.08831153 26162,6917.907,95.438,540.924,538.621,0.0
53780.0,STARLINK-4678,PAYLOAD,2023-03-01 12:51:08,15.0882368,0.0001706,53.2171,191.0503,104.6415,255.4767,-3.8327e-05,-8.98e-06,0.0,0 STARLINK-4678,1 53780U 22111H   23060.53551005 -.00000898  00000-0 -38327-4 0  9999,2 53780  53.2171 191.0503 0001706 104.6415 255.4767 15.08823680 27004,6917.93,95.439,540.975,538.615,0.0
53780.0,STARLINK-4678,PAYLOAD,2023-03-02 17:28:02,15.08846597,0.0001651,53.217,185.6923,125.0937,235.021,0.00017975,2.574e-05,0.0,0 STARLINK-4678,1 53780U 22111H   23061.72781192  .00002574  00000-0  17975-3 0  9999,2 53780  53.2170 185.6923 0001651 125.0937 235.0210 15.08846597 27181,6917.86,95.437,540.867,538.583,0.0
53780.0,STARLINK-4678,PAYLOAD,2023-03-03 07:46:32,15.08836839,0.0001543,53.2177,183.0224,92.1948,267.9221,0.00015796,2.227e-05,0.0,0 STARLINK-4678,1 53780U 22111H   23062.32398240  .00002227  00000-0  15796-3 0  9998,2 53780  53.2177 183.0224 0001543  92.1948 267.9221 15.08836839 26464,6917.89,95.438,540.822,538.688,0.0
53780.0,STARLINK-4678,PAYLOAD,2023-03-03 12:32:40,15.08846135,0.0001787,53.2188,182.1308,103.7086,256.4105,0.00021694,3.167e-05,0.0,0 STARLINK-4678,1 53780U 22111H   23062.52269444  .00003167  00000-0  21694-3 0  9991,2 53780  53.2188 182.1308 0001787 103.7086 256.4105 15.08846135 26498,6917.862,95.437,540.963,538.49,0.0
53780.0,STARLINK-4678,PAYLOAD,2023-03-04 10:48:05,15.08841292,0.0001422,53.2196,177.9645,96.351,263.7644,-0.00014785,-2.64e-05,0.0,0 STARLINK-4678,1 53780U 22111H   23063.45006396 -.00002640  00000-0 -14785-3 0  9999,2 53780  53.2196 177.9645 0001422  96.3510 263.7644 15.08841292 27442,6917.876,95.437,540.725,538.758,0.0
53780.0,STARLINK-4678,PAYLOAD,2023-03-04 12:23:28,15.08843477,0.0001431,53.2195,177.6675,97.2013,262.9142,-0.00014288,-2.561e-05,0.0,0 STARLINK-4678,1 53780U 22111H   23063.51630231 -.00002561  00000-0 -14288-3 0  9997,2 53780  53.2195 177.6675 0001431  97.2013 262.9142 15.08843477 26641,6917.87,95.437,540.725,538.745,0.0
53780.0,STARLINK-4678,PAYLOAD,2023-03-04 15:34:13,15.08854825,0.0001241,53.2179,177.0722,115.5365,244.5756,-3.7156e-05,-8.79e-06,0.0,0 STARLINK-4678,1 53780U 22111H   23063.64877018 -.00000879  00000-0 -37156-4 0  9997,2 53780  53.2179 177.0722 0001241 115.5365 244.5756 15.08854825 26661,6917.835,95.437,540.559,538.842,0.0
53780.0,STARLINK-4678,PAYLOAD,2023-03-05 01:06:33,15.08842619,0.0001343,53.2179,175.2872,126.3186,233.7931,-0.00012795,-2.324e-05,0.0,0 STARLINK-4678,1 53780U 22111H   23064.04621854 -.00002324  00000-0 -12795-3 0  9995,2 53780  53.2179 175.2872 0001343 126.3186 233.7931 15.08842619 26721,6917.872,95.437,540.666,538.808,0.0
53780.0,STARLINK-4678,PAYLOAD,2023-03-06 05:43:30,15.08830376,0.0001423,53.2183,169.9338,138.6813,221.4287,8.4925e-05,1.064e-05,0.0,0 STARLINK-4678,1 53780U 22111H   23065.23854178  .00001064  00000-0  84925-4 0  9997,2 53780  53.2183 169.9338 0001423 138.6813 221.4287 15.08830376 26900,6917.91,95.438,540.759,538.79,0.0
